[Satellite]
VERSION=1.1
NAME=ESTRELA DO SUL
NICKNAME=ESTRELA DO SUL
TLE1=1 28137U 04001A   11057.43207521 -.00000301  00000-0  10000-3 0   129
TLE2=2 28137   0.0526 267.7453 0004125 110.9107 229.7956  1.00275666 26338
